NORAD_CAT_ID,OBJECT_NAME,OBJECT_TYPE,EPOCH,MEAN_MOTION,ECCENTRICITY,INCLINATION,RA_OF_ASC_NODE,ARG_OF_PERICENTER,MEAN_ANOMALY,BSTAR,MEAN_MOTION_DOT,MEAN_MOTION_DDOT,TLE_LINE0,TLE_LINE1,TLE_LINE2,SEMIMAJOR_AXIS,PERIOD,APOGEE,PERIGEE,DECAYED
56485.0,STARLINK-6210,PAYLOAD,2024-08-08 05:07:59,14.98342381,0.0002329,70.001,142.8204,271.0306,89.0586,0.00048068,5.649e-05,0.0,0 STARLINK-6210,1 56485U 23064AP  24221.21388293  .00005649  00000-0  48068-3 0  9993,2 56485  70.0010 142.8204 0002329 271.0306  89.0586 14.98342381 69097,6950.155,96.106,573.638,570.401,0.0
56485.0,STARLINK-6210,PAYLOAD,2024-08-08 21:09:20,14.98340027,0.0002064,70.0027,141.1408,250.0165,110.0772,0.00010406,1.149e-05,0.0,0 STARLINK-6210,1 56485U 23064AP  24221.88148565  .00001149  00000-0  10406-3 0  9998,2 56485  70.0027 141.1408 0002064 250.0165 110.0772 14.98340027 69557,6950.162,96.106,573.461,570.592,0.0
56485.0,STARLINK-6210,PAYLOAD,2024-08-08 22:45:28,14.98336724,0.0002167,70.0027,140.9722,260.5962,99.4952,0.00011041,1.225e-05,0.0,0 STARLINK-6210,1 56485U 23064AP  24221.94824719  .00001225  00000-0  11041-3 0  9998,2 56485  70.0027 140.9722 0002167 260.5962  99.4952 14.98336724 69209,6950.172,96.107,573.543,570.531,0.0
56485.0,STARLINK-6210,PAYLOAD,2024-08-09 11:34:33,14.98337589,0.0001768,70.0032,139.6214,298.6685,61.4296,-2.961e-05,-4.46e-06,0.0,0 STARLINK-6210,1 56485U 23064AP  24222.48232871 -.00000446  00000-0 -29610-4 0  9998,2 56485  70.0032 139.6214 0001768 298.6685  61.4296 14.98337589 69644,6950.169,96.107,573.263,570.806,0.0
56485.0,STARLINK-6210,PAYLOAD,2024-08-09 21:11:21,14.9833043,0.0002687,70.0009,138.6136,261.8861,98.1993,-0.00014675,-1.843e-05,0.0,0 STARLINK-6210,1 56485U 23064AP  24222.88288986 -.00001843  00000-0 -14675-3 0  9996,2 56485  70.0009 138.6136 0002687 261.8861  98.1993 14.98330430 69345,6950.192,96.107,573.924,570.189,0.0
56485.0,STARLINK-6210,PAYLOAD,2024-08-10 05:12:00,14.98342035,0.000272,70.0006,137.7716,258.4784,101.607,-1.286e-05,-2.46e-06,0.0,0 STARLINK-6210,1 56485U 23064AP  24223.21667795 -.00000246  00000-0 -12860-4 0  9994,2 56485  70.0006 137.7716 0002720 258.4784 101.6070 14.98342035 69395,6950.156,96.106,573.911,570.13,0.0
56485.0,STARLINK-6210,PAYLOAD,2024-08-10 21:13:22,14.98328987,0.0002695,70.0002,136.0885,268.154,91.931,-2.0723e-05,-3.4e-06,0.0,0 STARLINK-6210,1 56485U 23064AP  24223.88428791 -.00000340  00000-0 -20723-4 0  9990,2 56485  70.0002 136.0885 0002695 268.1540  91.9310 14.98328987 69858,6950.196,96.107,573.934,570.188,0.0
56485.0,STARLINK-6210,PAYLOAD,2024-08-10 22:49:30,14.98328759,0.0002673,70.0005,135.9212,267.5515,92.5338,-3.0135e-05,-4.52e-06,0.0,0 STARLINK-6210,1 56485U 23064AP  24223.95104859 -.00000452  00000-0 -30135-4 0  9996,2 56485  70.0005 135.9212 0002673 267.5515  92.5338 14.98328759 69500,6950.197,96.107,573.92,570.204,0.0
56485.0,STARLINK-6210,PAYLOAD,2024-08-11 02:01:45,14.98337588,0.0002727,70.0004,135.5827,270.5797,89.5049,0.00010453,1.155e-05,0.0,0 STARLINK-6210,1 56485U 23064AP  24224.08455994  .00001155  00000-0  10453-3 0  9999,2 56485  70.0004 135.5827 0002727 270.5797  89.5049 14.98337588 69889,6950.169,96.107,573.93,570.139,0.0
56485.0,STARLINK-6210,PAYLOAD,2024-08-11 18:03:07,14.9831984,0.0002885,70.0011,133.8986,269.0892,90.9936,7.4362e-05,7.94e-06,0.0,0 STARLINK-6210,1 56485U 23064AP  24224.75217197  .00000794  00000-0  74362-4 0  9992,2 56485  70.0011 133.8986 0002885 269.0892  90.9936 14.98319840 69981,6950.224,96.108,574.094,570.084,0.0
56485.0,STARLINK-6210,PAYLOAD,2024-08-11 22:51:31,14.98321867,0.0002919,70.0001,133.3925,268.902,91.1804,0.00013559,1.525e-05,0.0,0 STARLINK-6210,1 56485U 23064AP  24224.95245098  .00001525  00000-0  13559-3 0  9998,2 56485  70.0001 133.3925 0002919 268.9020  91.1804 14.98321867 69650,6950.218,96.108,574.112,570.054,0.0
56485.0,STARLINK-6210,PAYLOAD,2024-08-12 03:39:54,14.98337176,0.0002978,70.0004,132.8909,259.1759,100.9065,0.00015288,1.732e-05,0.0,0 STARLINK-6210,1 56485U 23064AP  24225.15271965  .00001732  00000-0  15288-3 0  9994,2 56485  70.0004 132.8909 0002978 259.1759 100.9065 14.98337176 70048,6950.171,96.107,574.105,569.966,0.0
56485.0,STARLINK-6210,PAYLOAD,2024-08-12 11:40:34,14.9834466,0.0003026,70.0003,132.0463,265.723,94.3583,0.00013161,1.478e-05,0.0,0 STARLINK-6210,1 56485U 23064AP  24225.48651443  .00001478  00000-0  13161-3 0  9998,2 56485  70.0003 132.0463 0003026 265.7230  94.3583 14.98344660 69737,6950.148,96.106,574.116,569.909,0.0
56485.0,STARLINK-6210,PAYLOAD,2024-08-12 22:53:31,14.98351995,0.0002854,70.001,130.8691,268.7087,91.3746,0.00044252,5.194e-05,0.0,0 STARLINK-6210,1 56485U 23064AP  24225.95383232  .00005194  00000-0  44252-3 0  9992,2 56485  70.0010 130.8691 0002854 268.7087  91.3746 14.98351995 69800,6950.125,96.106,573.973,570.006,0.0
56485.0,STARLINK-6210,PAYLOAD,2024-08-13 03:41:56,14.98306084,0.000296,70.0018,130.3645,272.0034,88.0786,-0.0008015,-9.637e-05,0.0,0 STARLINK-6210,1 56485U 23064AP  24226.15412736 -.00009637  00000-0 -80150-3 0  9992,2 56485  70.0018 130.3645 0002960 272.0034  88.0786 14.98306084 70190,6950.267,96.109,574.189,570.075,0.0
56485.0,STARLINK-6210,PAYLOAD,2024-08-13 22:55:35,14.98282958,0.0002663,70.0017,128.3439,276.2711,83.8145,-0.00086427,-0.00010377,0.0,0 STARLINK-6210,1 56485U 23064AP  24226.95527458 -.00010377  00000-0 -86427-3 0  9994,2 56485  70.0017 128.3439 0002663 276.2711  83.8145 14.98282958 69952,6950.338,96.11,574.054,570.352,0.0
56485.0,STARLINK-6210,PAYLOAD,2024-08-14 03:43:59,14.98314363,0.0002829,70.0018,127.8413,267.9721,92.1114,8.0511e-05,8.67e-06,0.0,0 STARLINK-6210,1 56485U 23064AP  24227.15554897  .00000867  00000-0  80511-4 0  9994,2 56485  70.0018 127.8413 0002829 267.9721  92.1114 14.98314363 70341,6950.241,96.108,574.072,570.14,0.0
56485.0,STARLINK-6210,PAYLOAD,2024-08-14 10:08:31,14.98325948,0.000327,70.0009,127.1659,273.9383,86.1402,0.00037529,4.387e-05,0.0,0 STARLINK-6210,1 56485U 23064AP  24227.42258735  .00004387  00000-0  37529-3 0  9997,2 56485  70.0009 127.1659 0003270 273.9383  86.1402 14.98325948 70027,6950.205,96.107,574.343,569.798,0.0
56485.0,STARLINK-6210,PAYLOAD,2024-08-14 19:45:20,14.98330452,0.0003215,70.0009,126.1559,274.5211,85.5581,0.0004897,5.755e-05,0.0,0 STARLINK-6210,1 56485U 23064AP  24227.82314830  .00005755  00000-0  48970-3 0  9992,2 56485  70.0009 126.1559 0003215 274.5211  85.5581 14.98330452 70444,6950.191,96.107,574.291,569.822,0.0
56485.0,STARLINK-6210,PAYLOAD,2024-08-14 21:21:28,14.98332652,0.000317,70.001,125.9878,274.8568,85.2229,0.0005668,6.677e-05,0.0,0 STARLINK-6210,1 56485U 23064AP  24227.88990820  .00006677  00000-0  56680-3 0  9998,2 56485  70.0010 125.9878 0003170 274.8568  85.2229 14.98332652 70096,6950.185,96.107,574.253,569.846,0.0
56485.0,STARLINK-6210,PAYLOAD,2024-08-15 03:45:59,14.98360248,0.000313,70.0012,125.3157,271.7893,88.2907,0.0013172,0.00015671,0.0,0 STARLINK-6210,1 56485U 23064AP  24228.15694371  .00015671  00000-0  13172-2 0  9993,2 56485  70.0012 125.3157 0003130 271.7893  88.2907 14.98360248 70497,6950.099,96.105,574.14,569.789,0.0
56485.0,STARLINK-6210,PAYLOAD,2024-08-15 10:10:31,14.98359547,0.0003077,70.0014,124.6425,271.2173,88.8634,0.00085961,0.00010187,0.0,0 STARLINK-6210,1 56485U 23064AP  24228.42397974  .00010187  00000-0  85961-3 0  9995,2 56485  70.0014 124.6425 0003077 271.2173  88.8634 14.98359547 70173,6950.102,96.105,574.105,569.828,0.0
56485.0,STARLINK-6210,PAYLOAD,2024-08-15 21:23:27,14.98363211,0.0003046,70.0018,123.4644,271.2817,88.7993,0.000589,6.948e-05,0.0,0 STARLINK-6210,1 56485U 23064AP  24228.89129095  .00006948  00000-0  58900-3 0  9996,2 56485  70.0018 123.4644 0003046 271.2817  88.7993 14.98363211 70606,6950.09,96.105,574.072,569.838,0.0
56485.0,STARLINK-6210,PAYLOAD,2024-08-15 22:59:35,14.98360405,0.000303,70.0018,123.296,272.3192,87.762,0.00045609,5.357e-05,0.0,0 STARLINK-6210,1 56485U 23064AP  24228.95805082  .00005357  00000-0  45609-3 0  9995,2 56485  70.0018 123.2960 0003030 272.3192  87.7620 14.98360405 70255,6950.099,96.105,574.07,569.858,0.0
56485.0,STARLINK-6210,PAYLOAD,2024-08-16 02:11:51,14.9836466,0.0002997,70.0017,122.9594,272.0402,88.0414,0.00063034,7.443e-05,0.0,0 STARLINK-6210,1 56485U 23064AP  24229.09156767  .00007443  00000-0  63034-3 0  9990,2 56485  70.0017 122.9594 0002997 272.0402  88.0414 14.98364660 70279,6950.086,96.105,574.034,569.868,0.0
56485.0,STARLINK-6210,PAYLOAD,2024-08-16 21:25:28,14.98345047,0.0002726,70.0025,120.9403,278.962,81.123,0.00023558,2.72e-05,0.0,0 STARLINK-6210,1 56485U 23064AP  24229.89268545  .00002720  00000-0  23558-3 0  9996,2 56485  70.0025 120.9403 0002726 278.9620  81.1230 14.98345047 70753,6950.146,96.106,573.906,570.117,0.0
56485.0,STARLINK-6210,PAYLOAD,2024-08-17 02:13:51,14.98350194,0.0003124,70.0013,120.4344,272.0956,87.9845,8.8861e-05,9.68e-06,0.0,0 STARLINK-6210,1 56485U 23064AP  24230.09296010  .00000968  00000-0  88861-4 0  9999,2 56485  70.0013 120.4344 0003124 272.0956  87.9845 14.98350194 70428,6950.13,96.106,574.167,569.824,0.0
56485.0,STARLINK-6210,PAYLOAD,2024-08-18 02:15:52,14.98338088,0.000282,70.0013,117.9085,268.9585,91.1251,-5.7883e-05,-7.84e-06,0.0,0 STARLINK-6210,1 56485U 23064AP  24231.09436320 -.00000784  00000-0 -57883-4 0  9998,2 56485  70.0013 117.9085 0002820 268.9585  91.1251 14.98338088 70937,6950.168,96.106,573.993,570.073,0.0
56485.0,STARLINK-6210,PAYLOAD,2024-08-18 21:29:29,14.98344492,0.0003034,70.0015,115.889,268.5517,91.5294,0.00038644,4.523e-05,0.0,0 STARLINK-6210,1 56485U 23064AP  24231.89548021  .00004523  00000-0  38644-3 0  9994,2 56485  70.0015 115.8890 0003034 268.5517  91.5294 14.98344492 70699,6950.148,96.106,574.122,569.904,0.0
56485.0,STARLINK-6210,PAYLOAD,2024-08-19 02:17:53,14.98351184,0.0002981,70.0017,115.3839,270.5982,89.4835,0.00082736,9.798e-05,0.0,0 STARLINK-6210,1 56485U 23064AP  24232.09575870  .00009798  00000-0  82736-3 0  9999,2 56485  70.0017 115.3839 0002981 270.5982  89.4835 14.98351184 71085,6950.127,96.106,574.064,569.921,0.0
